[{"OBJECT_NAME":"STARLINK-3125","OBJECT_ID":"2021-104AV","EPOCH":"2026-03-09T16:18:48.159648","MEAN_MOTION":15.0884301,"ECCENTRICITY":0.00012103,"INCLINATION":53.2167,"RA_OF_ASC_NODE":219.164,"ARG_OF_PERICENTER":87.4509,"MEAN_ANOMALY":272.6621,"EPHEMERIS_TYPE":0,"CLASSIFICATION_TYPE":"U","NORAD_CAT_ID":49451,"ELEMENT_SET_NO":999,"REV_AT_EPOCH":23877,"BSTAR":1.6923164e-5,"MEAN_MOTION_DOT":-1.8e-7,"MEAN_MOTION_DDOT":0},{"OBJECT_NAME":"OBJECT H","OBJECT_ID":"2025-292H","EPOCH":"2026-03-09T22:24:53.558208","MEAN_MOTION":15.06373042,"ECCENTRICITY":0.00142604,"INCLINATION":97.6442,"RA_OF_ASC_NODE":145.7846,"ARG_OF_PERICENTER":348.9217,"MEAN_ANOMALY":11.1694,"EPHEMERIS_TYPE":0,"CLASSIFICATION_TYPE":"U","NORAD_CAT_ID":67000,"ELEMENT_SET_NO":999,"REV_AT_EPOCH":1338,"BSTAR":0.0005462937,"MEAN_MOTION_DOT":8.001e-5,"MEAN_MOTION_DDOT":0}]
